start=new Date('2023-04-17T00:00:00.000Z').valueOf();
sats=[{"MEAN_MOTION_DOT":"0.00003283","CLASSIFICATION_TYPE":"U","LAUNCH_DATE":"2021-03-11","MEAN_MOTION":"15.06401467","APOAPSIS":"547.812","SITE":"AFETR","OBJECT_NAME":"STARLINK-2387","COUNTRY_CODE":"US","DECAY_DATE":null,"REF_FRAME":"TEME","RA_OF_ASC_NODE":"315.4554","MEAN_ELEMENT_THEORY":"SGP4","NORAD_CAT_ID":"47806","REV_AT_EPOCH":"11728","OBJECT_ID":"2021-018V","PERIOD":"95.592","EPOCH":"2023-04-16T20:23:24.942336","MEAN_ANOMALY":"258.1351","ECCENTRICITY":"0.00008710","EPHEMERIS_TYPE":"0","ARG_OF_PERICENTER":"101.9735","TIME_SYSTEM":"UTC","INCLINATION":"53.0541","MEAN_MOTION_DDOT":"0.0000000000000","PERIAPSIS":"546.606","OBJECT_TYPE":"PAYLOAD","FILE":"3888799","CENTER_NAME":"EARTH","RCS_SIZE":"LARGE","ELEMENT_SET_NO":"999","TLE_LINE2":"2 47806  53.0541 315.4554 0000871 101.9735 258.1351 15.06401467117282","TLE_LINE1":"1 47806U 21018V   23106.84959424  .00003283  00000-0  23917-3 0  9995","GP_ID":"230196632","SEMIMAJOR_AXIS":"6925.344","BSTAR":"0.00023917000000"},{"BSTAR":"0.00154030000000","SEMIMAJOR_AXIS":"6925.391","GP_ID":"230196879","TLE_LINE1":"1 47807U 21018W   23106.77265311  .00022727  00000-0  15403-2 0  9997","TLE_LINE2":"2 47807  53.0526 290.7897 0000951 104.9076 255.2018 15.06386235117554","RCS_SIZE":"LARGE","ELEMENT_SET_NO":"999","CENTER_NAME":"EARTH","FILE":"3888799","PERIAPSIS":"546.597","OBJECT_TYPE":"PAYLOAD","INCLINATION":"53.0526","MEAN_MOTION_DDOT":"0.0000000000000","TIME_SYSTEM":"UTC","ARG_OF_PERICENTER":"104.9076","EPHEMERIS_TYPE":"0","PERIOD":"95.593","MEAN_ANOMALY":"255.2018","ECCENTRICITY":"0.00009510","EPOCH":"2023-04-16T18:32:37.228704","OBJECT_ID":"2021-018W","NORAD_CAT_ID":"47807","REV_AT_EPOCH":"11755","MEAN_ELEMENT_THEORY":"SGP4","RA_OF_ASC_NODE":"290.7897","REF_FRAME":"TEME","DECAY_DATE":null,"COUNTRY_CODE":"US","OBJECT_NAME":"STARLINK-2388","SITE":"AFETR","APOAPSIS":"547.914","MEAN_MOTION":"15.06386235","LAUNCH_DATE":"2021-03-11","CLASSIFICATION_TYPE":"U","MEAN_MOTION_DOT":"0.00022727"},{"MEAN_MOTION":"15.06384169","APOAPSIS":"548.039","SITE":"AFETR","MEAN_MOTION_DOT":"0.00023091","CLASSIFICATION_TYPE":"U","LAUNCH_DATE":"2021-03-11","REF_FRAME":"TEME","RA_OF_ASC_NODE":"315.3631","MEAN_ELEMENT_THEORY":"SGP4","REV_AT_EPOCH":"11728","NORAD_CAT_ID":"47808","COUNTRY_CODE":"US","OBJECT_NAME":"STARLINK-2389","DECAY_DATE":null,"INCLINATION":"53.0539","MEAN_MOTION_DDOT":"0.0000000000000","OBJECT_TYPE":"PAYLOAD","PERIAPSIS":"546.485","ELEMENT_SET_NO":"999","RCS_SIZE":"LARGE","FILE":"3888799","CENTER_NAME":"EARTH","OBJECT_ID":"2021-018X","PERIOD":"95.593","MEAN_ANOMALY":"253.9851","EPOCH":"2023-04-16T20:49:57.883584","ECCENTRICITY":"0.00011220","EPHEMERIS_TYPE":"0","TIME_SYSTEM":"UTC","ARG_OF_PERICENTER":"106.1261","GP_ID":"230197133","SEMIMAJOR_AXIS":"6925.397","BSTAR":"0.00156470000000","TLE_LINE2":"2 47808  53.0539 315.3631 0001122 106.1261 253.9851 15.06384169117284","TLE_LINE1":"1 47808U 21018X   23106.86803106  .00023091  00000-0  15647-2 0  9993"},{"SEMIMAJOR_AXIS":"6925.504","BSTAR":"0.00055046000000","GP_ID":"230197845","TLE_LINE2":"2 47809  53.0544 320.6313 0001417  32.1600 327.9475 15.06349147117202","TLE_LINE1":"1 47809U 21018Y   23106.80577373  .00007916  00000-0  55046-3 0  9998","OBJECT_TYPE":"PAYLOAD","PERIAPSIS":"546.388","ELEMENT_SET_NO":"999","RCS_SIZE":"LARGE","CENTER_NAME":"EARTH","FILE":"3888799","MEAN_MOTION_DDOT":"0.0000000000000","INCLINATION":"53.0544","EPHEMERIS_TYPE":"0","ARG_OF_PERICENTER":"32.1600","TIME_SYSTEM":"UTC","OBJECT_ID":"2021-018Y","PERIOD":"95.595","MEAN_ANOMALY":"327.9475","EPOCH":"2023-04-16T19:20:18.850272","ECCENTRICITY":"0.00014170","MEAN_ELEMENT_THEORY":"SGP4","REV_AT_EPOCH":"11720","NORAD_CAT_ID":"47809","REF_FRAME":"TEME","RA_OF_ASC_NODE":"320.6313","DECAY_DATE":null,"COUNTRY_CODE":"US","OBJECT_NAME":"STARLINK-2390","APOAPSIS":"548.351","SITE":"AFETR","MEAN_MOTION":"15.06349147","CLASSIFICATION_TYPE":"U","LAUNCH_DATE":"2021-03-11","MEAN_MOTION_DOT":"0.00007916"},{"GP_ID":"230196132","SEMIMAJOR_AXIS":"6925.467","BSTAR":"0.00142750000000","TLE_LINE2":"2 47810  53.0552 330.2311 0001063  88.3896 271.7214 15.06361453117071","TLE_LINE1":"1 47810U 21018Z   23106.89797408  .00021023  00000-0  14275-2 0  9995","MEAN_MOTION_DDOT":"0.0000000000000","INCLINATION":"53.0552","OBJECT_TYPE":"PAYLOAD","PERIAPSIS":"546.596","RCS_SIZE":"LARGE","ELEMENT_SET_NO":"999","FILE":"3888799","CENTER_NAME":"EARTH","OBJECT_ID":"2021-018Z","PERIOD":"95.595","MEAN_ANOMALY":"271.7214","EPOCH":"2023-04-16T21:33:04.960512","ECCENTRICITY":"0.00010630","EPHEMERIS_TYPE":"0","ARG_OF_PERICENTER":"88.3896","TIME_SYSTEM":"UTC","REF_FRAME":"TEME","RA_OF_ASC_NODE":"330.2311","MEAN_ELEMENT_THEORY":"SGP4","NORAD_CAT_ID":"47810","REV_AT_EPOCH":"11707","OBJECT_NAME":"STARLINK-2391","COUNTRY_CODE":"US","DECAY_DATE":null,"MEAN_MOTION":"15.06361453","APOAPSIS":"548.068","SITE":"AFETR","MEAN_MOTION_DOT":"0.00021023","CLASSIFICATION_TYPE":"U","LAUNCH_DATE":"2021-03-11"},{"MEAN_ELEMENT_THEORY":"SGP4","REV_AT_EPOCH":"11748","NORAD_CAT_ID":"47811","REF_FRAME":"TEME","RA_OF_ASC_NODE":"300.6437","DECAY_DATE":null,"COUNTRY_CODE":"US","OBJECT_NAME":"STARLINK-2392","APOAPSIS":"547.983","SITE":"AFETR","MEAN_MOTION":"15.06390713","CLASSIFICATION_TYPE":"U","LAUNCH_DATE":"2021-03-11","MEAN_MOTION_DOT":"0.00020918","SEMIMAJOR_AXIS":"6925.377","BSTAR":"0.00141940000000","GP_ID":"230196379","TLE_LINE2":"2 47811  53.0531 300.6437 0001070 110.9268 249.1836 15.06390713117487","TLE_LINE1":"1 47811U 21018AA  23106.80490829  .00020918  00000-0  14194-2 0  9996","OBJECT_TYPE":"PAYLOAD","PERIAPSIS":"546.501","CENTER_NAME":"EARTH","FILE":"3888799","ELEMENT_SET_NO":"999","RCS_SIZE":"LARGE","INCLINATION":"53.0531","MEAN_MOTION_DDOT":"0.0000000000000","EPHEMERIS_TYPE":"0","TIME_SYSTEM":"UTC","ARG_OF_PERICENTER":"110.9268","OBJECT_ID":"2021-018AA","MEAN_ANOMALY":"249.1836","PERIOD":"95.593","EPOCH":"2023-04-16T19:19:04.076256","ECCENTRICITY":"0.00010700"},{"REV_AT_EPOCH":"11701","NORAD_CAT_ID":"47812","MEAN_ELEMENT_THEORY":"SGP4","RA_OF_ASC_NODE":"330.1843","REF_FRAME":"TEME","DECAY_DATE":null,"COUNTRY_CODE":"US","OBJECT_NAME":"STARLINK-2393","SITE":"AFETR","APOAPSIS":"548.157","MEAN_MOTION":"15.06350343","LAUNCH_DATE":"2021-03-11","CLASSIFICATION_TYPE":"U","MEAN_MOTION_DOT":"0.00013132","BSTAR":"0.00090007000000","SEMIMAJOR_AXIS":"6925.501","GP_ID":"230197634","TLE_LINE1":"1 47812U 21018AB  23106.90900953  .00013132  00000-0  90007-3 0  9990","TLE_LINE2":"2 47812  53.0543 330.1843 0001143  57.7798 302.3301 15.06350343117010","FILE":"3888799","CENTER_NAME":"EARTH","RCS_SIZE":"LARGE","ELEMENT_SET_NO":"999","PERIAPSIS":"546.574","OBJECT_TYPE":"PAYLOAD","MEAN_MOTION_DDOT":"0.0000000000000","INCLINATION":"53.0543","TIME_SYSTEM":"UTC","ARG_OF_PERICENTER":"57.7798","EPHEMERIS_TYPE":"0","MEAN_ANOMALY":"302.3301","PERIOD":"95.595","ECCENTRICITY":"0.00011430","EPOCH":"2023-04-16T21:48:58.423392","OBJECT_ID":"2021-018AB"},{"TLE_LINE2":"2 47813  53.0533 300.2490 0000634 127.3909 232.7137 15.06368145117492","TLE_LINE1":"1 47813U 21018AC  23106.89334898  .00021181  00000-0  14378-2 0  9997","GP_ID":"230197345","SEMIMAJOR_AXIS":"6925.446","BSTAR":"0.00143780000000","OBJECT_ID":"2021-018AC","PERIOD":"95.594","MEAN_ANOMALY":"232.7137","ECCENTRICITY":"0.00006340","EPOCH":"2023-04-16T21:26:25.351872","EPHEMERIS_TYPE":"0","TIME_SYSTEM":"UTC","ARG_OF_PERICENTER":"127.3909","INCLINATION":"53.0533","MEAN_MOTION_DDOT":"0.0000000000000","OBJECT_TYPE":"PAYLOAD","PERIAPSIS":"546.872","ELEMENT_SET_NO":"999","RCS_SIZE":"LARGE","FILE":"3888799","CENTER_NAME":"EARTH","OBJECT_NAME":"STARLINK-2394","COUNTRY_CODE":"US","DECAY_DATE":null,"REF_FRAME":"TEME","RA_OF_ASC_NODE":"300.2490","MEAN_ELEMENT_THEORY":"SGP4","NORAD_CAT_ID":"47813","REV_AT_EPOCH":"11749","MEAN_MOTION_DOT":"0.00021181","CLASSIFICATION_TYPE":"U","LAUNCH_DATE":"2021-03-11","MEAN_MOTION":"15.06368145","APOAPSIS":"547.750","SITE":"AFETR"},{"LAUNCH_DATE":"2021-03-11","CLASSIFICATION_TYPE":"U","MEAN_MOTION_DOT":"0.00015561","SITE":"AFETR","APOAPSIS":"548.191","MEAN_MOTION":"15.06355781","DECAY_DATE":null,"COUNTRY_CODE":"US","OBJECT_NAME":"STARLINK-2395","NORAD_CAT_ID":"47814","REV_AT_EPOCH":"11682","MEAN_ELEMENT_THEORY":"SGP4","RA_OF_ASC_NODE":"320.4428","REF_FRAME":"TEME","TIME_SYSTEM":"UTC","ARG_OF_PERICENTER":"41.2934","EPHEMERIS_TYPE":"0","ECCENTRICITY":"0.00012160","PERIOD":"95.595","MEAN_ANOMALY":"318.8146","EPOCH":"2023-04-16T20:25:23.849472","OBJECT_ID":"2021-018AD","CENTER_NAME":"EARTH","FILE":"3888664","RCS_SIZE":"LARGE","ELEMENT_SET_NO":"999","OBJECT_TYPE":"PAYLOAD","PERIAPSIS":"546.507","INCLINATION":"53.0540","MEAN_MOTION_DDOT":"0.0000000000000","TLE_LINE1":"1 47814U 21018AD  23106.85097048  .00015561  00000-0  10625-2 0  9993","TLE_LINE2":"2 47814  53.0540 320.4428 0001216  41.2934 318.8146 15.06355781116829","BSTAR":"0.00106250000000","SEMIMAJOR_AXIS":"6925.484","GP_ID":"230172047"},{"RA_OF_ASC_NODE":"315.2956","REF_FRAME":"TEME","REV_AT_EPOCH":"11722","NORAD_CAT_ID":"47815","MEAN_ELEMENT_THEORY":"SGP4","OBJECT_NAME":"STARLINK-2396","COUNTRY_CODE":"US","DECAY_DATE":null,"MEAN_MOTION":"15.06466320","SITE":"AFETR","APOAPSIS":"547.490","MEAN_MOTION_DOT":"0.00072748","LAUNCH_DATE":"2021-03-11","CLASSIFICATION_TYPE":"U","GP_ID":"230196880","BSTAR":"0.00484400000000","SEMIMAJOR_AXIS":"6925.145","TLE_LINE1":"1 47815U 21018AE  23106.88275098  .00072748  00000-0  48440-2 0  9996","TLE_LINE2":"2 47815  53.0531 315.2956 0000693 137.0319 223.0724 15.06466320117223","MEAN_MOTION_DDOT":"0.0000000000000","INCLINATION":"53.0531","FILE":"3888799","CENTER_NAME":"EARTH","ELEMENT_SET_NO":"999","RCS_SIZE":"LARGE","OBJECT_TYPE":"PAYLOAD","PERIAPSIS":"546.530","EPOCH":"2023-04-16T21:11:09.684672","PERIOD":"95.588","MEAN_ANOMALY":"223.0724","ECCENTRICITY":"0.00006930","OBJECT_ID":"2021-018AE","ARG_OF_PERICENTER":"137.0319","TIME_SYSTEM":"UTC","EPHEMERIS_TYPE":"0"}];
